

*******************************************************************************
Ephemeris / WWW_USER Sun Sep  8 01:48:09 2024 Pasadena, USA      / Horizons
*******************************************************************************
Target body name: Uranus (799)                    {source: ura116}
Center body name: Sun (10)                        {source: ura116}
Center-site name: BODY CENTER
*******************************************************************************
Start time      : A.D. 2020-Jan-01 00:00:00.0000 TDB
Stop  time      : A.D. 2030-Jan-01 00:00:00.0000 TDB
Step-size       : 1440 minutes
*******************************************************************************
Center geodetic : 0.0, 0.0, 0.0                   {E-lon(deg),Lat(deg),Alt(km)}
Center cylindric: 0.0, 0.0, 0.0                   {E-lon(deg),Dxy(km),Dz(km)}
Center radii    : 695700.0, 695700.0, 695700.0 km {Equator_a, b, pole_c}
Output units    : KM-S
Calendar mode   : Mixed Julian/Gregorian
Output type     : GEOMETRIC cartesian states
Output format   : 4 (position, LT, range, and range-rate)
Reference frame : Ecliptic of J2000.0
*******************************************************************************
            JDTDB,            Calendar Date (TDB),                      X,                      Y,                      Z,                     LT,                     RG,                     RR,
**************************************************************************************************************************************************************************************************
$$SOE
2461300.500000000, A.D. 2026-Sep-17 00:00:00.0000,  1.343404416777840E+09,  2.579931365710210E+09, -7.837225127841115E+06,  9.702554872510391E+03,  2.908752774109766E+09, -3.131118500812604E-01,
2461301.500000000, A.D. 2026-Sep-18 00:00:00.0000,  1.342877284705534E+09,  2.580175309190897E+09, -7.829463637969613E+06,  9.702464637883408E+03,  2.908725722449147E+09, -3.130829415814214E-01,
2461302.500000000, A.D. 2026-Sep-19 00:00:00.0000,  1.342350110653926E+09,  2.580419143879340E+09, -7.821710149279833E+06,  9.702374402897663E+03,  2.908698670680972E+09, -3.131298796779222E-01,
2461303.500000000, A.D. 2026-Sep-20 00:00:00.0000,  1.341822879113568E+09,  2.580662874166705E+09, -7.813957469056964E+06,  9.702284156603124E+03,  2.908671615522508E+09, -3.131266835478000E-01,
2461304.500000000, A.D. 2026-Sep-21 00:00:00.0000,  1.341295610328067E+09,  2.580906495370929E+09, -7.806207295325637E+06,  9.702193916312210E+03,  2.908644562163883E+09, -3.131325221280066E-01,
2461305.500000000, A.D. 2026-Sep-22 00:00:00.0000,  1.340768283454783E+09,  2.581150008597789E+09, -7.798484252943039E+06,  9.702103653446728E+03,  2.908617502037574E+09, -3.132602276015706E-01,
2461306.500000000, A.D. 2026-Sep-23 00:00:00.0000,  1.340240881686077E+09,  2.581393421238543E+09, -7.790761652862668E+06,  9.702013363829205E+03,  2.908590433891206E+09, -3.133071905311931E-01,
2461307.500000000, A.D. 2026-Sep-24 00:00:00.0000,  1.339713418306107E+09,  2.581636730923812E+09, -7.783035729748249E+06,  9.701923060872085E+03,  2.908563361745725E+09, -3.133681207642984E-01,
2461308.500000000, A.D. 2026-Sep-25 00:00:00.0000,  1.339185889190856E+09,  2.581879939679226E+09, -7.775298126035571E+06,  9.701832744190260E+03,  2.908536285485683E+09, -3.133752956447784E-01,
2461309.500000000, A.D. 2026-Sep-26 00:00:00.0000,  1.338658316248773E+09,  2.582123043052770E+09, -7.767546428262472E+06,  9.701742434248081E+03,  2.908509211246134E+09, -3.133639510949414E-01,
2461310.500000000, A.D. 2026-Sep-27 00:00:00.0000,  1.338130688275847E+09,  2.582366041020544E+09, -7.759798488371968E+06,  9.701652113931279E+03,  2.908482133896355E+09, -3.134170989232682E-01,
2461311.500000000, A.D. 2026-Sep-28 00:00:00.0000,  1.337603007180009E+09,  2.582608936229114E+09, -7.752031890302539E+06,  9.701561793817807E+03,  2.908455056607530E+09, -3.133571411109802E-01,
2461312.500000000, A.D. 2026-Sep-29 00:00:00.0000,  1.337075296647704E+09,  2.582851720920952E+09, -7.744265053920746E+06,  9.701471487425250E+03,  2.908427983432131E+09, -3.133617421978473E-01,
2461313.500000000, A.D. 2026-Sep-30 00:00:00.0000,  1.336547534647059E+09,  2.583094397997142E+09, -7.736511819320798E+06,  9.701381169660204E+03,  2.908400906847349E+09, -3.134025767822066E-01,
2461314.500000000, A.D. 2026-Oct-01 00:00:00.0000,  1.336019721087641E+09,  2.583336968427925E+09, -7.728765182028770E+06,  9.701290843199627E+03,  2.908373827655709E+09, -3.134431662502902E-01,
2461315.500000000, A.D. 2026-Oct-02 00:00:00.0000,  1.335491843256898E+09,  2.583579434267613E+09, -7.721030025016427E+06,  9.701200494706369E+03,  2.908346741858838E+09, -3.135320686785370E-01,
2461316.500000000, A.D. 2026-Oct-03 00:00:00.0000,  1.334963904248180E+09,  2.583821798360806E+09, -7.713280998943210E+06,  9.701110137150858E+03,  2.908319653345173E+09, -3.135082594254944E-01,
2461317.500000000, A.D. 2026-Oct-04 00:00:00.0000,  1.334435923238903E+09,  2.584064054244604E+09, -7.705534565993667E+06,  9.701019780901850E+03,  2.908292565223187E+09, -3.135538114092175E-01,
2461318.500000000, A.D. 2026-Oct-05 00:00:00.0000,  1.333907876857379E+09,  2.584306206535642E+09, -7.697793872371793E+06,  9.700929403900249E+03,  2.908265470879730E+09, -3.136072030154577E-01,
2461319.500000000, A.D. 2026-Oct-06 00:00:00.0000,  1.333379779246498E+09,  2.584548254801753E+09, -7.690039585588336E+06,  9.700839026355397E+03,  2.908238376373411E+09, -3.135885063449614E-01,
2461320.500000000, A.D. 2026-Oct-07 00:00:00.0000,  1.332851634910960E+09,  2.584790195686628E+09, -7.682288961733460E+06,  9.700748645362282E+03,  2.908211280833329E+09, -3.136245957939611E-01,
2461321.500000000, A.D. 2026-Oct-08 00:00:00.0000,  1.332323439395916E+09,  2.585032030782036E+09, -7.674537395488858E+06,  9.700658258787573E+03,  2.908184183619926E+09, -3.136216828407561E-01,
2461322.500000000, A.D. 2026-Oct-09 00:00:00.0000,  1.331795195941615E+09,  2.585273757264496E+09, -7.666799906291723E+06,  9.700567863345430E+03,  2.908157083748135E+09, -3.137123691162159E-01,
2461323.500000000, A.D. 2026-Oct-10 00:00:00.0000,  1.331266876563210E+09,  2.585515382480628E+09, -7.659067697338700E+06,  9.700477438009853E+03,  2.908129974914516E+09, -3.137818953651442E-01,
2461324.500000000, A.D. 2026-Oct-11 00:00:00.0000,  1.330738501529357E+09,  2.585756905437300E+09, -7.651316090307236E+06,  9.700387010609220E+03,  2.908102865461811E+09, -3.137566633965505E-01,
2461325.500000000, A.D. 2026-Oct-12 00:00:00.0000,  1.330210077994921E+09,  2.585998321642990E+09, -7.643565921402216E+06,  9.700296578936881E+03,  2.908075754728478E+09, -3.138093515002214E-01,
2461326.500000000, A.D. 2026-Oct-13 00:00:00.0000,  1.329681596512643E+09,  2.586239634709510E+09, -7.635805862661719E+06,  9.700206139198548E+03,  2.908048641577022E+09, -3.137991136148532E-01,
2461327.500000000, A.D. 2026-Oct-14 00:00:00.0000,  1.329153072185814E+09,  2.586480840855065E+09, -7.628039409659147E+06,  9.700115703251195E+03,  2.908021529562074E+09, -3.138068936588848E-01,
2461328.500000000, A.D. 2026-Oct-15 00:00:00.0000,  1.328624497015798E+09,  2.586721941374954E+09, -7.620269483573318E+06,  9.700025262763123E+03,  2.907994416185853E+09, -3.137962214248609E-01,
2461329.500000000, A.D. 2026-Oct-16 00:00:00.0000,  1.328095890066708E+09,  2.586962932262515E+09, -7.612494649600029E+06,  9.699934834879754E+03,  2.907967306588425E+09, -3.137616183889690E-01,
2461330.500000000, A.D. 2026-Oct-17 00:00:00.0000,  1.327567238771925E+09,  2.587203811775300E+09, -7.604747312984705E+06,  9.699844395543247E+03,  2.907940193557434E+09, -3.138679856414688E-01,
2461331.500000000, A.D. 2026-Oct-18 00:00:00.0000,  1.327038516520015E+09,  2.587444588291583E+09, -7.597008872185707E+06,  9.699753928936980E+03,  2.907913072351174E+09, -3.139183960256227E-01,
2461332.500000000, A.D. 2026-Oct-19 00:00:00.0000,  1.326509738809551E+09,  2.587685259465621E+09, -7.589271600173235E+06,  9.699663451656756E+03,  2.907885947944943E+09, -3.139754619074515E-01,
2461333.500000000, A.D. 2026-Oct-20 00:00:00.0000,  1.325980894671770E+09,  2.587925827395261E+09, -7.581537718713164E+06,  9.699572953278976E+03,  2.907858817213823E+09, -3.140374839644395E-01,
2461334.500000000, A.D. 2026-Oct-21 00:00:00.0000,  1.325451993265364E+09,  2.588166291929193E+09, -7.573794026351333E+06,  9.699482447199838E+03,  2.907831684173894E+09, -3.140503111347376E-01,
2461335.500000000, A.D. 2026-Oct-22 00:00:00.0000,  1.324923032240716E+09,  2.588406651908669E+09, -7.566052302245855E+06,  9.699391926528589E+03,  2.907804546759362E+09, -3.141256223858510E-01,
2461336.500000000, A.D. 2026-Oct-23 00:00:00.0000,  1.324394009622494E+09,  2.588646911053864E+09, -7.558288622792125E+06,  9.699301399125579E+03,  2.907777407326696E+09, -3.140805794396432E-01,
2461337.500000000, A.D. 2026-Oct-24 00:00:00.0000,  1.323864957561898E+09,  2.588887060990174E+09, -7.550512869662523E+06,  9.699210889061527E+03,  2.907750273092121E+09, -3.140528202005692E-01,
2461338.500000000, A.D. 2026-Oct-25 00:00:00.0000,  1.323335858764303E+09,  2.589127102061693E+09, -7.542749599665403E+06,  9.699120371280369E+03,  2.907723136544014E+09, -3.140988012286855E-01,
2461339.500000000, A.D. 2026-Oct-26 00:00:00.0000,  1.322806709574197E+09,  2.589367036691345E+09, -7.534986720146060E+06,  9.699029847322185E+03,  2.907695998144082E+09, -3.141107080096472E-01,
2461340.500000000, A.D. 2026-Oct-27 00:00:00.0000,  1.322277507482918E+09,  2.589606864112762E+09, -7.527233727437377E+06,  9.698939311190570E+03,  2.907668856094648E+09, -3.141815617165104E-01,
2461341.500000000, A.D. 2026-Oct-28 00:00:00.0000,  1.321748245058574E+09,  2.589846588044963E+09, -7.519475532015920E+06,  9.698848762543055E+03,  2.907641710293040E+09, -3.141777782975583E-01,
2461342.500000000, A.D. 2026-Oct-29 00:00:00.0000,  1.321218940281365E+09,  2.590086203411556E+09, -7.511720100478053E+06,  9.698758213641580E+03,  2.907614564415298E+09, -3.142221412062663E-01,
